[{"OBJECT_NAME":"STARLINK-6166","OBJECT_ID":"2023-061K","EPOCH":"2026-03-09T22:00:01.999584","MEAN_MOTION":15.13484228,"ECCENTRICITY":0.00023094,"INCLINATION":42.9998,"RA_OF_ASC_NODE":195.708,"ARG_OF_PERICENTER":284.6312,"MEAN_ANOMALY":123.1748,"EPHEMERIS_TYPE":0,"CLASSIFICATION_TYPE":"U","NORAD_CAT_ID":56383,"ELEMENT_SET_NO":999,"REV_AT_EPOCH":572,"BSTAR":0.0043761353,"MEAN_MOTION_DOT":0.00080384,"MEAN_MOTION_DDOT":0},{"OBJECT_NAME":"LEGION 2","OBJECT_ID":"2024-081B","EPOCH":"2026-03-09T21:44:46.632192","MEAN_MOTION":15.16566591,"ECCENTRICITY":0.00102207,"INCLINATION":97.5068,"RA_OF_ASC_NODE":147.8786,"ARG_OF_PERICENTER":344.1701,"MEAN_ANOMALY":15.9211,"EPHEMERIS_TYPE":0,"CLASSIFICATION_TYPE":"U","NORAD_CAT_ID":59626,"ELEMENT_SET_NO":999,"REV_AT_EPOCH":10249,"BSTAR":0.00029733867,"MEAN_MOTION_DOT":5.743e-5,"MEAN_MOTION_DDOT":0}]
